CTC1_L_00635007-03
1 79945U 26652YS  26070.40841435  .00000000  00000+0  00000-0 0  9998
2 79945  60.0000 180.0000 0000000   0.0000 144.0000  3.95927803    17
CTC1_L_00635007-04
1 79946U 25755EL  26070.40841435  .00000000  00000+0  00000-0 0  9992
2 79946  60.0000 180.0000 0000000   0.0000 180.0000  3.95927803    18
CTC1_L_00635007-05
1 79947U 22685EI  26070.40841435  .00000000  00000+0  00000-0 0  9992
2 79947  60.0000 180.0000 0000000   0.0000 216.0000  3.95927803    19
CTC1_L_00635007-06
1 79948U 22367PT  26070.40841435  .00000000  00000+0  00000-0 0  9990
2 79948  60.0000 180.0000 0000000   0.0000 252.0000  3.95927803    10
CTC1_L_00635007-07
1 79949U 25094OP  26070.40841435  .00000000  00000+0  00000-0 0  9991
2 79949  60.0000 180.0000 0000000   0.0000 288.0000  3.95927803    10
CTC1_L_00635007-08
1 79950U 22892ND  26070.40841435  .00000000  00000+0  00000-0 0  9996
2 79950  60.0000 180.0000 0000000   0.0000 324.0000  3.95927803    13
CTC1_L_00635007-09
1 79951U 26646BP  26070.40841435  .00000000  00000+0  00000-0 0  9998
2 79951  60.0000 180.0000 0000000   0.0000   0.0000  3.95927803    15
CTC1_L_00635007-10
1 79952U 23966G   26070.40841435  .00000000  00000+0  00000-0 0  9991
2 79952  60.0000 180.0000 0000000   0.0000  36.0000  3.95927803    15
CTC1_L_00635008-01
1 79953U 23347EJ  26070.40841435  .00000000  00000+0  00000-0 0  9995
2 79953  60.0000 210.0000 0000000   0.0000  84.0000  3.95927803    13
CTC1_L_00635008-02
1 79954U 24426WU  26070.40841435  .00000000  00000+0  00000-0 0  9995
2 79954  60.0000 210.0000 0000000   0.0000 120.0000  3.95927803    15
CTC1_L_00635008-03
1 79955U 22440XB  26070.40841435  .00000000  00000+0  00000-0 0  9990
2 79955  60.0000 210.0000 0000000   0.0000 156.0000  3.95927803    15
CTC1_L_00635008-04
1 79956U 23125ID  26070.40841435  .00000000  00000+0  00000-0 0  9992
2 79956  60.0000 210.0000 0000000   0.0000 192.0000  3.95927803    16
CTC1_L_00635008-05
1 79957U 26115BO  26070.40841435  .00000000  00000+0  00000-0 0  9995
2 79957  60.0000 210.0000 0000000   0.0000 228.0000  3.95927803    17
CTC1_L_00635008-06
1 79958U 26155AA  26070.40841435  .00000000  00000+0  00000-0 0  9990
2 79958  60.0000 210.0000 0000000   0.0000 264.0000  3.95927803    18
CTC1_L_00635008-07
1 79959U 22297CH  26070.40841435  .00000000  00000+0  00000-0 0  9994
2 79959  60.0000 210.0000 0000000   0.0000 300.0000  3.95927803    10
CTC1_L_00635008-08
1 79960U 22904FW  26070.40841435  .00000000  00000+0  00000-0 0  9991
2 79960  60.0000 210.0000 0000000   0.0000 336.0000  3.95927803    11
CTC1_L_00635008-09
1 79961U 26026TI  26070.40841435  .00000000  00000+0  00000-0 0  9991
2 79961  60.0000 210.0000 0000000   0.0000  12.0000  3.95927803    13
CTC1_L_00635008-10
1 79962U 22129OE  26070.40841435  .00000000  00000+0  00000-0 0  9992
2 79962  60.0000 210.0000 0000000   0.0000  48.0000  3.95927803    13
CTC1_L_00635009-01
1 79963U 24073LD  26070.40841435  .00000000  00000+0  00000-0 0  9993
2 79963  60.0000 240.0000 0000000   0.0000  96.0000  3.95927803    10
CTC1_L_00635009-02
1 79964U 25345B   26070.40841435  .00000000  00000+0  00000-0 0  9997
2 79964  60.0000 240.0000 0000000   0.0000 132.0000  3.95927803    12
CTC1_L_00635009-03
1 79965U 25464IX  26070.40841435  .00000000  00000+0  00000-0 0  9990
2 79965  60.0000 240.0000 0000000   0.0000 168.0000  3.95927803    12
CTC1_L_00635009-04
1 79966U 26993LS  26070.40841435  .00000000  00000+0  00000-0 0  9999
2 79966  60.0000 240.0000 0000000   0.0000 204.0000  3.95927803    14
CTC1_L_00635009-05
1 79967U 22864BD  26070.40841435  .00000000  00000+0  00000-0 0  9993
2 79967  60.0000 240.0000 0000000   0.0000 240.0000  3.95927803    15
CTC1_L_00635009-06
1 79968U 26403F   26070.40841435  .00000000  00000+0  00000-0 0  9997
2 79968  60.0000 240.0000 0000000   0.0000 276.0000  3.95927803    15
CTC1_L_00635009-07
1 79969U 22954NE  26070.40841435  .00000000  00000+0  00000-0 0  9995
2 79969  60.0000 240.0000 0000000   0.0000 312.0000  3.95927803    17
CTC1_L_00635009-08
1 79970U 25920UX  26070.40841435  .00000000  00000+0  00000-0 0  9993
2 79970  60.0000 240.0000 0000000   0.0000 348.0000  3.95927803    18
CTC1_L_00635009-09
1 79971U 23018SW  26070.40841435  .00000000  00000+0  00000-0 0  9990
2 79971  60.0000 240.0000 0000000   0.0000  24.0000  3.95927803    10
CTC1_L_00635009-10
1 79972U 26117BC  26070.40841435  .00000000  00000+0  00000-0 0  9994
2 79972  60.0000 240.0000 0000000   0.0000  60.0000  3.95927803    11
CTC1_L_00635010-01
1 79973U 25345RG  26070.40841435  .00000000  00000+0  00000-0 0  9997
2 79973  60.0000 270.0000 0000000   0.0000 108.0000  3.95927803    18
CTC1_L_00635010-02
1 79974U 26420CA  26070.40841435  .00000000  00000+0  00000-0 0  9993
2 79974  60.0000 270.0000 0000000   0.0000 144.0000  3.95927803    19
CTC1_L_00635010-03
1 79975U 26592RY  26070.40841435  .00000000  00000+0  00000-0 0  9994
2 79975  60.0000 270.0000 0000000   0.0000 180.0000  3.95927803    10
CTC1_L_00635010-04
1 79976U 23040HI  26070.40841435  .00000000  00000+0  00000-0 0  9990
2 79976  60.0000 270.0000 0000000   0.0000 216.0000  3.95927803    11
CTC1_L_00635010-05
1 79977U 25573YM  26070.40841435  .00000000  00000+0  00000-0 0  9994
2 79977  60.0000 270.0000 0000000   0.0000 252.0000  3.95927803    12
CTC1_L_00635010-06
1 79978U 22433J   26070.40841435  .00000000  00000+0  00000-0 0  9997
2 79978  60.0000 270.0000 0000000   0.0000 288.0000  3.95927803    12
CTC1_L_00635010-07
1 79979U 22487NX  26070.40841435  .00000000  00000+0  00000-0 0  9997
2 79979  60.0000 270.0000 0000000   0.0000 324.0000  3.95927803    14
CTC1_L_00635010-08
1 79980U 23767AF  26070.40841435  .00000000  00000+0  00000-0 0  9991
2 79980  60.0000 270.0000 0000000   0.0000   0.0000  3.95927803    17
CTC1_L_00635010-09
1 79981U 22806M   26070.40841435  .00000000  00000+0  00000-0 0  9995
2 79981  60.0000 270.0000 0000000   0.0000  36.0000  3.95927803    17
CTC1_L_00635010-10
1 79982U 24591LI  26070.40841435  .00000000  00000+0  00000-0 0  9999
2 79982  60.0000 270.0000 0000000   0.0000  72.0000  3.95927803    18
CTC1_L_00635011-01
1 79983U 24236FG  26070.40841435  .00000000  00000+0  00000-0 0  9996
2 79983  60.0000 300.0000 0000000   0.0000 120.0000  3.95927803    17
CTC1_L_00635011-02
1 79984U 23280AK  26070.40841435  .00000000  00000+0  00000-0 0  9995
2 79984  60.0000 300.0000 0000000   0.0000 156.0000  3.95927803    17
CTC1_L_00635011-03
1 79985U 26665UZ  26070.40841435  .00000000  00000+0  00000-0 0  9996
2 79985  60.0000 300.0000 0000000   0.0000 192.0000  3.95927803    18
CTC1_L_00635011-04
1 79986U 22679YY  26070.40841435  .00000000  00000+0  00000-0 0  9998
2 79986  60.0000 300.0000 0000000   0.0000 228.0000  3.95927803    19
CTC1_L_00635011-05
1 79987U 25408DP  26070.40841435  .00000000  00000+0  00000-0 0  9992
2 79987  60.0000 300.0000 0000000   0.0000 264.0000  3.95927803    10
CTC1_L_00635011-06
1 79988U 22068RF  26070.40841435  .00000000  00000+0  00000-0 0  9992
2 79988  60.0000 300.0000 0000000   0.0000 300.0000  3.95927803    12
CTC1_L_00635011-07
1 79989U 24156UO  26070.40841435  .00000000  00000+0  00000-0 0  9993
2 79989  60.0000 300.0000 0000000   0.0000 336.0000  3.95927803    12
CTC1_L_00635011-08
1 79990U 24976FO  26070.40841435  .00000000  00000+0  00000-0 0  9995
2 79990  60.0000 300.0000 0000000   0.0000  12.0000  3.95927803    15
CTC1_L_00635011-09
1 79991U 24938FV  26070.40841435  .00000000  00000+0  00000-0 0  9994
2 79991  60.0000 300.0000 0000000   0.0000  48.0000  3.95927803    15
CTC1_L_00635011-10
1 79992U 25333RP  26070.40841435  .00000000  00000+0  00000-0 0  9995
2 79992  60.0000 300.0000 0000000   0.0000  84.0000  3.95927803    16
CTC1_L_00635012-01
1 79993U 22237FQ  26070.40841435  .00000000  00000+0  00000-0 0  9996
2 79993  60.0000 330.0000 0000000   0.0000 132.0000  3.95927803    14
CTC1_L_00635012-02
1 79994U 26601OV  26070.40841435  .00000000  00000+0  00000-0 0  9996
2 79994  60.0000 330.0000 0000000   0.0000 168.0000  3.95927803    14
CTC1_L_00635012-03
1 79995U 24445YP  26070.40841435  .00000000  00000+0  00000-0 0  9991
2 79995  60.0000 330.0000 0000000   0.0000 204.0000  3.95927803    16
CTC1_L_00635012-04
1 79996U 24102GB  26070.40841435  .00000000  00000+0  00000-0 0  9992
2 79996  60.0000 330.0000 0000000   0.0000 240.0000  3.95927803    17
CTC1_L_00635012-05
1 79997U 22084GH  26070.40841435  .00000000  00000+0  00000-0 0  9990
2 79997  60.0000 330.0000 0000000   0.0000 276.0000  3.95927803    17
CTC1_L_00635012-06
1 79998U 24650FV  26070.40841435  .00000000  00000+0  00000-0 0  9992
2 79998  60.0000 330.0000 0000000   0.0000 312.0000  3.95927803    19
CTC1_L_00635012-07
1 79999U 24382BC  26070.40841435  .00000000  00000+0  00000-0 0  9995
2 79999  60.0000 330.0000 0000000   0.0000 348.0000  3.95927803    19
CTC1_L_00635012-08
1 80000U 23307MA  26070.40841435  .00000000  00000+0  00000-0 0  9996
2 80000  60.0000 330.0000 0000000   0.0000  24.0000  3.95927803    15
CTC1_L_00635012-09
1 80001U 24602BS  26070.40841435  .00000000  00000+0  00000-0 0  9996
2 80001  60.0000 330.0000 0000000   0.0000  60.0000  3.95927803    16
CTC1_L_00635012-10
1 80002U 23842JV  26070.40841435  .00000000  00000+0  00000-0 0  9992
2 80002  60.0000 330.0000 0000000   0.0000  96.0000  3.95927803    16
